[{"OBJECT_NAME":"STARLINK-36113","OBJECT_ID":"2025-288Z","EPOCH":"2026-03-09T05:52:53.214240","MEAN_MOTION":15.27560673,"ECCENTRICITY":0.00010413,"INCLINATION":42.9997,"RA_OF_ASC_NODE":25.588,"ARG_OF_PERICENTER":268.0745,"MEAN_ANOMALY":91.9988,"EPHEMERIS_TYPE":0,"CLASSIFICATION_TYPE":"U","NORAD_CAT_ID":66982,"ELEMENT_SET_NO":999,"REV_AT_EPOCH":1522,"BSTAR":0.0010332646,"MEAN_MOTION_DOT":0.00028263,"MEAN_MOTION_DDOT":0},{"OBJECT_NAME":"CZ-4B R\/B","OBJECT_ID":"2010-051C","EPOCH":"2026-03-09T16:48:37.977120","MEAN_MOTION":15.17426017,"ECCENTRICITY":0.00758037,"INCLINATION":97.7974,"RA_OF_ASC_NODE":110.8647,"ARG_OF_PERICENTER":95.044,"MEAN_ANOMALY":265.9451,"EPHEMERIS_TYPE":0,"CLASSIFICATION_TYPE":"U","NORAD_CAT_ID":37181,"ELEMENT_SET_NO":999,"REV_AT_EPOCH":84355,"BSTAR":0.00029718512,"MEAN_MOTION_DOT":6.328e-5,"MEAN_MOTION_DDOT":0}]
